{
    "links": {
        "self": "http://www.neowsapp.com/rest/v1/neo/3780735?api_key=iIulBulltgU6a56xZRHN4H3l9WmuAYTsLGpBGhQ2"
    },
    "id": "3780735",
    "neo_reference_id": "3780735",
    "name": "(2017 QT1)",
    "designation": "2017 QT1",
    "nasa_jpl_url": "http://ssd.jpl.nasa.gov/sbdb.cgi?sstr=3780735",
    "absolute_magnitude_h": 26.7,
    "estimated_diameter": {
        "kilometers": {
            "estimated_diameter_min": 0.0121494041,
            "estimated_diameter_max": 0.0271668934
        },
        "meters": {
            "estimated_diameter_min": 12.14940408,
            "estimated_diameter_max": 27.1668934089
        },
        "miles": {
            "estimated_diameter_min": 0.0075492874,
            "estimated_diameter_max": 0.0168807197
        },
        "feet": {
            "estimated_diameter_min": 39.8602508817,
            "estimated_diameter_max": 89.1302305717
        }
    },
    "is_potentially_hazardous_asteroid": false,
    "close_approach_data": [
        {
            "close_approach_date": "2017-08-22",
            "close_approach_date_full": "2017-Aug-22 18:24",
            "epoch_date_close_approach": 1503426240000,
            "relative_velocity": {
                "kilometers_per_second": "20.5850996792",
                "kilometers_per_hour": "74106.3588451247",
                "miles_per_hour": "46046.8094724054"
            },
            "miss_distance": {
                "astronomical": "0.0066549713",
                "lunar": "2.5887838357",
                "kilometers": "995569.531391131",
                "miles": "618618.2210983678"
            },
            "orbiting_body": "Earth"
        },
        {
            "close_approach_date": "2017-08-22",
            "close_approach_date_full": "2017-Aug-22 23:24",
            "epoch_date_close_approach": 1503444240000,
            "relative_velocity": {
                "kilometers_per_second": "20.9177086507",
                "kilometers_per_hour": "75303.7511426924",
                "miles_per_hour": "46790.822480858"
            },
            "miss_distance": {
                "astronomical": "0.0063388732",
                "lunar": "2.4658216748",
                "kilometers": "948281.928920084",
                "miles": "589235.0674377992"
            },
            "orbiting_body": "Moon"
        },
        {
            "close_approach_date": "2029-08-15",
            "close_approach_date_full": "2029-Aug-15 09:31",
            "epoch_date_close_approach": 1881480660000,
            "relative_velocity": {
                "kilometers_per_second": "24.3717869167",
                "kilometers_per_hour": "87738.4329002845",
                "miles_per_hour": "54517.2501540685"
            },
            "miss_distance": {
                "astronomical": "0.13350736",
                "lunar": "51.93436304",
                "kilometers": "19972416.6853232",
                "miles": "12410284.25573216"
            },
            "orbiting_body": "Earth"
        },
        {
            "close_approach_date": "2085-08-18",
            "close_approach_date_full": "2085-Aug-18 01:50",
            "epoch_date_close_approach": 3648937800000,
            "relative_velocity": {
                "kilometers_per_second": "23.6320901656",
                "kilometers_per_hour": "85075.5245962759",
                "miles_per_hour": "52862.6224915027"
            },
            "miss_distance": {
                "astronomical": "0.1219331557",
                "lunar": "47.4319975673",
                "kilometers": "18240940.375098359",
                "miles": "11334394.7662169942"
            },
            "orbiting_body": "Earth"
        }
    ],
    "orbital_data": {
        "orbit_id": "1",
        "orbit_determination_date": "2017-08-19 19:58:32",
        "first_observation_date": "2017-08-15",
        "last_observation_date": "2017-08-19",
        "data_arc_in_days": 4,
        "observations_used": 22,
        "orbit_uncertainty": "8",
        "minimum_orbit_intersection": "6.13255E-6",
        "jupiter_tisserand_invariant": "2.996",
        "epoch_osculation": "2457983.5",
        "eccentricity": ".7469593686301602",
        "semi_major_axis": "2.51051893478726",
        "inclination": "1.177463670139014",
        "ascending_node_longitude": "312.2300311945482",
        "orbital_period": "1452.926613036084",
        "perihelion_distance": ".6352632963245058",
        "perihelion_argument": "99.73884625377208",
        "aphelion_distance": "4.385774573250013",
        "perihelion_time": "2458033.515097692947",
        "mean_anomaly": "347.6074710120175",
        "mean_motion": ".2477757629118872",
        "equinox": "J2000",
        "orbit_class": {
            "orbit_class_type": "APO",
            "orbit_class_description": "Near-Earth asteroid orbits which cross the Earth’s orbit similar to that of 1862 Apollo",
            "orbit_class_range": "a (semi-major axis) > 1.0 AU; q (perihelion) < 1.017 AU"
        }
    },
    "is_sentry_object": false
}